$$SOE
2460154.500000000, A.D. 2023-Jul-29 00:00:00.0000, 2.410519224027399E+08, -2.446675895805146E+08, 3.079842442249516E+07,
2460161.500000000, A.D. 2023-Aug-05 00:00:00.0000, 2.492129220862544E+08, -2.357072688924466E+08, 2.955058232324205E+07,
2460168.500000000, A.D. 2023-Aug-12 00:00:00.0000, 2.570774834710634E+08, -2.264665797797236E+08, 2.826759193422557E+07,
2460175.500000000, A.D. 2023-Aug-19 00:00:00.0000, 2.646348413589263E+08, -2.169552699894184E+08, 2.695082416486408E+07,
2460182.500000000, A.D. 2023-Aug-26 00:00:00.0000, 2.718745659613494E+08, -2.071835569409380E+08, 2.560170990799318E+07,
2460189.500000000, A.D. 2023-Sep-02 00:00:00.0000, 2.787865878681025E+08, -1.971621163762117E+08, 2.422173835368321E+07,
2460196.500000000, A.D. 2023-Sep-09 00:00:00.0000, 2.853612226677714E+08, -1.869020695277456E+08, 2.281245508014479E+07,
2460203.500000000, A.D. 2023-Sep-16 00:00:00.0000, 2.915891952788183E+08, -1.764149688662616E+08, 2.137545990540063E+07,
2460210.500000000, A.D. 2023-Sep-23 00:00:00.0000, 2.974616642938054E+08, -1.657127821578433E+08, 1.991240449015065E+07,
2460217.500000000, A.D. 2023-Sep-30 00:00:00.0000, 3.029702458819567E+08, -1.548078736696596E+08, 1.842498982670993E+07,
2460224.500000000, A.D. 2023-Oct-07 00:00:00.0000, 3.081070347766153E+08, -1.437129831092711E+08, 1.691496379184305E+07,
2460231.500000000, A.D. 2023-Oct-14 00:00:00.0000, 3.128646232612512E+08, -1.324412056575349E+08, 1.538411840254438E+07,
2460238.500000000, A.D. 2023-Oct-21 00:00:00.0000, 3.172361212587270E+08, -1.210059715429873E+08, 1.383428661591234E+07,
2460245.500000000, A.D. 2023-Oct-28 00:00:00.0000, 3.212151759842907E+08, -1.094210229593267E+08, 1.226733899747243E+07,
2460252.500000000, A.D. 2023-Nov-04 00:00:00.0000, 3.247959898033936E+08, -9.770038917069969E+07, 1.068518032053260E+07,
2460259.500000000, A.D. 2023-Nov-11 00:00:00.0000, 3.279733363683351E+08, -8.585836048938634E+07, 9.089746043446437E+06,
2460266.500000000, A.D. 2023-Nov-18 00:00:00.0000, 3.307425751564085E+08, -7.390946128438422E+07, 7.482998652834792E+06,
2460273.500000000, A.D. 2023-Nov-25 00:00:00.0000, 3.330996643937331E+08, -6.186842210153393E+07, 5.866923882571664E+06,
2460280.500000000, A.D. 2023-Dec-02 00:00:00.0000, 3.350411723137130E+08, -4.975015101816824E+07, 4.243526820741421E+06,
2460287.500000000, A.D. 2023-Dec-09 00:00:00.0000, 3.365642867584783E+08, -3.756970441144995E+07, 2.614827909077333E+06,
2460294.500000000, A.D. 2023-Dec-16 00:00:00.0000, 3.376668233490971E+08, -2.534225725546857E+07, 9.828588262552973E+05,
2460301.500000000, A.D. 2023-Dec-23 00:00:00.0000, 3.383472325187062E+08, -1.308307238939679E+07, -6.503417034836728E+05,
2460308.500000000, A.D. 2023-Dec-30 00:00:00.0000, 3.386046040323381E+08, -8.074678377152671E+05, -2.282731948741208E+06,
2460315.500000000, A.D. 2024-Jan-06 00:00:00.0000, 3.384386672047658E+08, 1.146921531680468E+07, -3.912271067525390E+06,
2460322.500000000, A.D. 2024-Jan-13 00:00:00.0000, 3.378497899758907E+08, 2.373164255493929E+07, -5.536923282852184E+06,
2460329.500000000, A.D. 2024-Jan-20 00:00:00.0000, 3.368389780611889E+08, 3.596451598165357E+07, -7.154662179529863E+06,
2460336.500000000, A.D. 2024-Jan-27 00:00:00.0000, 3.354078721597697E+08, 4.815260533918937E+07, -8.763474864220100E+06,
2460343.500000000, A.D. 2024-Feb-03 00:00:00.0000, 3.335587428172851E+08, 6.028077888577825E+07, -1.036136600883954E+07,
2460350.500000000, A.D. 2024-Feb-10 00:00:00.0000, 3.312944832580867E+08, 7.233403371319661E+07, -1.194636180898047E+07,
2460357.500000000, A.D. 2024-Feb-17 00:00:00.0000, 3.286186003734286E+08, 8.429752537975369E+07, -1.351651385251974E+07,
2460364.500000000, A.D. 2024-Feb-24 00:00:00.0000, 3.255352039606646E+08, 9.615659674776648E+07, -1.506990288435009E+07,
2460371.500000000, A.D. 2024-Mar-02 00:00:00.0000, 3.220489943124989E+08, 1.078968058740079E+08, -1.660464245731516E+07,
2460378.500000000, A.D. 2024-Mar-09 00:00:00.0000, 3.181652483754532E+08, 1.195039527785894E+08, -1.811888247310063E+07,
2460385.500000000, A.D. 2024-Mar-16 00:00:00.0000, 3.138898049618367E+08, 1.309641051838198E+08, -1.961081262054249E+07,
2460392.500000000, A.D. 2024-Mar-23 00:00:00.0000, 3.092290490020720E+08, 1.422636242333328E+08, -2.107866559936646E+07,
2460399.500000000, A.D. 2024-Mar-30 00:00:00.0000, 3.041898926923899E+08, 1.533891900832714E+08, -2.252071991426718E+07,
2460406.500000000, A.D. 2024-Apr-06 00:00:00.0000, 2.987797539100032E+08, 1.643278239288981E+08, -2.393530252896971E+07,
2460413.500000000, A.D. 2024-Apr-13 00:00:00.0000, 2.930065355643139E+08, 1.750669072346052E+08, -2.532079163101780E+07,
2460420.500000000, A.D. 2024-Apr-20 00:00:00.0000, 2.868786050439652E+08, 1.855942007874610E+08, -2.667561919489992E+07,
2460427.500000000, A.D. 2024-Apr-27 00:00:00.0000, 2.804047723607807E+08, 1.958978629706771E+08, -2.799827324535535E+07,
2460434.500000000, A.D. 2024-May-04 00:00:00.0000, 2.735942672009274E+08, 2.059664665203747E+08, -2.928729988338841E+07,
2460441.500000000, A.D. 2024-May-11 00:00:00.0000, 2.664567152432947E+08, 2.157890136376033E+08, -3.054130510338087E+07,
2460448.500000000, A.D. 2024-May-18 00:00:00.0000, 2.590021139439961E+08, 2.253549494583359E+08, -3.175895640567783E+07,
2460455.500000000, A.D. 2024-May-25 00:00:00.0000, 2.512408079219038E+08, 2.346541738661806E+08, -3.293898420610788E+07,
2460462.500000000, A.D. 2024-Jun-01 00:00:00.0000, 2.431834641111062E+08, 2.436770515979413E+08, -3.408018305192899E+07,
2460469.500000000, A.D. 2024-Jun-08 00:00:00.0000, 2.348410470347996E+08, 2.524144206433775E+08, -3.518141267034505E+07,
2460476.500000000, A.D. 2024-Jun-15 00:00:00.0000, 2.262247947137141E+08, 2.608575995182169E+08, -3.624159884669022E+07,
2460483.500000000, A.D. 2024-Jun-22 00:00:00.0000, 2.173461943141506E+08, 2.689983946175374E+08, -3.725973395019937E+07,
2460490.500000000, A.D. 2024-Jun-29 00:00:00.0000, 2.082169555099061E+08, 2.768291058653006E+08, -3.823487706639215E+07,
2460497.500000000, A.D. 2024-Jul-06 00:00:00.0000, 1.988489842988479E+08, 2.843425282411382E+08, -3.916615418806846E+07,
2460504.500000000, A.D. 2024-Jul-13 00:00:00.0000, 1.892543593158468E+08, 2.915319520580588E+08, -4.005275842157888E+07,
2460511.500000000, A.D. 2024-Jul-20 00:00:00.0000, 1.794453087330531E+08, 2.983911631899441E+08, -4.089394993918207E+07,
2460518.500000000, A.D. 2024-Jul-27 00:00:00.0000, 1.694341871609766E+08, 3.049144423486415E+08, -4.168905570311484E+07,
2460525.500000000, A.D. 2024-Aug-03 00:00:00.0000, 1.592334528883603E+08, 3.110965631003081E+08, -4.243746902554400E+07,
2460532.500000000, A.D. 2024-Aug-10 00:00:00.0000, 1.488556456857210E+08, 3.169327886839411E+08, -4.313864898906580E+07,
2460539.500000000, A.D. 2024-Aug-17 00:00:00.0000, 1.383133652723635E+08, 3.224188677231862E+08, -4.379211973976137E+07,
2460546.500000000, A.D. 2024-Aug-24 00:00:00.0000, 1.276192505204095E+08, 3.275510288798928E+08, -4.439746966683787E+07,
2460553.500000000, A.D. 2024-Aug-31 00:00:00.0000, 1.167859595503206E+08, 3.323259744595993E+08, -4.495435049427168E+07,
2460560.500000000, A.D. 2024-Sep-07 00:00:00.0000, 1.058261511157034E+08, 3.367408731681975E+08, -4.546247631770395E+07,
2460567.500000000, A.D. 2024-Sep-14 00:00:00.0000, 9.475246739032215E+07, 3.407933530895737E+08, -4.592162252378233E+07,
2460574.500000000, A.D. 2024-Sep-21 00:00:00.0000, 8.357751615198743E+07, 3.444814953648062E+08, -4.633162438212056E+07,
2460581.500000000, A.D. 2024-Sep-28 00:00:00.0000, 7.231385188633053E+07, 3.478038254074499E+08, -4.669237553605893E+07,
2460588.500000000, A.D. 2024-Oct-05 00:00:00.0000, 6.097395948468250E+07, 3.507593017301002E+08, -4.700382673842798E+07,
2460595.500000000, A.D. 2024-Oct-12 00:00:00.0000, 4.957024018364454E+07, 3.533473054331259E+08, -4.726598456688029E+07,
2460602.500000000, A.D. 2024-Oct-19 00:00:00.0000, 3.811499799586990E+07, 3.555676301451883E+08, -4.747890998863551E+07,
2460609.500000000, A.D. 2024-Oct-26 00:00:00.0000, 2.662042659294227E+07, 3.574204716737406E+08, -4.764271684489721E+07,
2460616.500000000, A.D. 2024-Nov-02 00:00:00.0000, 1.509859688750248E+07, 3.589064172759374E+08, -4.775757029854977E+07,
2460623.500000000, A.D. 2024-Nov-09 00:00:00.0000, 3.561445397867472E+06, 3.600264346269462E+08, -4.782368525991789E+07,
2460630.500000000, A.D. 2024-Nov-16 00:00:00.0000, -7.979236595463764E+06, 3.607818605392310E+08, -4.784132480012019E+07,
2460637.500000000, A.D. 2024-Nov-23 00:00:00.0000, -1.951181307389603E+07, 3.611743894331277E+08, -4.781079856710200E+07,
2460644.500000000, A.D. 2024-Nov-30 00:00:00.0000, -3.102481229919570E+07, 3.612060615631974E+08, -4.773246123315142E+07,
2460651.500000000, A.D. 2024-Dec-07 00:00:00.0000, -4.250693443151301E+07, 3.608792514657168E+08, -4.760671098390760E+07,
2460658.500000000, A.D. 2024-Dec-14 00:00:00.0000, -5.394705846126156E+07, 3.601966578950877E+08, -4.743398789185259E+07,
2460665.500000000, A.D. 2024-Dec-21 00:00:00.0000, -6.533425079624020E+07, 3.591612940464156E+08, -4.721477206812017E+07,
2460672.500000000, A.D. 2024-Dec-28 00:00:00.0000, -7.665777355797383E+07, 3.577764751232451E+08, -4.694958201756808E+07,
2460679.500000000, A.D. 2025-Jan-04 00:00:00.0000, -8.790709002426018E+07, 3.560458056570559E+08, -4.663897324419126E+07,
2460686.500000000, A.D. 2025-Jan-11 00:00:00.0000, -9.907186906886601E+07, 3.539731682705975E+08, -4.628353680882660E+07,
2460693.500000000, A.D. 2025-Jan-18 00:00:00.0000, -1.101419895443779E+08, 3.515627129896756E+08, -4.588389783266850E+07,
2460700.500000000, A.D. 2025-Jan-25 00:00:00.0000, -1.211075443967314E+08, 3.488188466498053E+08, -4.544071401002832E+07,
2460707.500000000, A.D. 2025-Feb-01 00:00:00.0000, -1.319588443533428E+08, 3.457462223884125E+08, -4.495467415293968E+07,
2460714.500000000, A.D. 2025-Feb-08 00:00:00.0000, -1.426864211553920E+08, 3.423497292604748E+08, -4.442649677358513E+07,
2460721.500000000, A.D. 2025-Feb-15 00:00:00.0000, -1.532810303329022E+08, 3.386344819709910E+08, -4.385692870975468E+07,
$$EOE